{
  "type": "FeatureCollection",
  "features": [
    {
      "type": "Feature",
      "properties": {
        "norad_id": 36060,
        "name": "COSMOS 2251 DEB",
        "group": "cosmos-2251-debris",
        "lat": -73.29190337446018,
        "lon": 128.8923433544803,
        "alt_km": 754.8150945448288,
        "timestamp": "2025-12-11T18:59:46.472640+00:00",
        "meta_object_name": "COSMOS 2251 DEB",
        "meta_object_id": "1993-036AXX",
        "meta_epoch": "2025-12-09T10:49:25.276800",
        "meta_mean_motion": 14.41988994,
        "meta_eccentricity": 0.00151666,
        "meta_inclination": 74.0292,
        "meta_ra_of_asc_node": 240.6647,
        "meta_arg_of_pericenter": 338.0669,
        "meta_mean_anomaly": 21.9836,
        "meta_ephemeris_type": 0,
        "meta_classification_type": "U",
        "meta_norad_cat_id": 36060,
        "meta_element_set_no": 999,
        "meta_rev_at_epoch": 84962,
        "meta_bstar": 0.00059597173,
        "meta_mean_motion_dot": 1.931e-05,
        "meta_mean_motion_ddot": 0,
        "tle_line1": "1 36060U 93036AXX 25343.45098700  .00001931  00000+0  59597-3 0  9997",
        "tle_line2": "2 36060  74.0292 240.6647 0015166 338.0669  21.9836 14.41988994849629"
      },
      "geometry": {
        "type": "Point",
        "coordinates": [
          128.8923433544803,
          -73.29190337446018
        ]
      }
    },
    {
      "type": "Feature",
      "properties": {
        "norad_id": 36061,
        "name": "COSMOS 2251 DEB",
        "group": "cosmos-2251-debris",
        "lat": 60.432555242235225,
        "lon": 151.17085754204976,
        "alt_km": 749.2625980070325,
        "timestamp": "2025-12-11T18:59:46.472651+00:00",
        "meta_object_name": "COSMOS 2251 DEB",
        "meta_object_id": "1993-036AXY",
        "meta_epoch": "2025-12-08T08:24:20.190816",
        "meta_mean_motion": 14.33698686,
        "meta_eccentricity": 0.00368149,
        "meta_inclination": 74.0243,
        "meta_ra_of_asc_node": 7.7948,
        "meta_arg_of_pericenter": 97.1574,
        "meta_mean_anomaly": 263.3766,
        "meta_ephemeris_type": 0,
        "meta_classification_type": "U",
        "meta_norad_cat_id": 36061,
        "meta_element_set_no": 999,
        "meta_rev_at_epoch": 65041,
        "meta_bstar": 0.00050814435,
        "meta_mean_motion_dot": 1.395e-05,
        "meta_mean_motion_ddot": 0,
        "tle_line1": "1 36061U 93036AXY 25342.35023369  .00001395  00000+0  50814-3 0  9992",
        "tle_line2": "2 36061  74.0243   7.7948 0036814  97.1574 263.3766 14.33698686650411"
      },
      "geometry": {
        "type": "Point",
        "coordinates": [
          151.17085754204976,
          60.432555242235225
        ]
      }
    },
    {
      "type": "Feature",
      "properties": {
        "norad_id": 36073,
        "name": "COSMOS 2251 DEB",
        "group": "cosmos-2251-debris",
        "lat": -26.15771980681307,
        "lon": 152.3823253277148,
        "alt_km": 797.4482991549203,
        "timestamp": "2025-12-11T18:59:46.472661+00:00",
        "meta_object_name": "COSMOS 2251 DEB",
        "meta_object_id": "1993-036AYL",
        "meta_epoch": "2025-12-10T05:13:27.011136",
        "meta_mean_motion": 14.34947803,
        "meta_eccentricity": 0.0023742,
        "meta_inclination": 74.0319,
        "meta_ra_of_asc_node": 327.182,
        "meta_arg_of_pericenter": 35.9086,
        "meta_mean_anomaly": 324.3656,
        "meta_ephemeris_type": 0,
        "meta_classification_type": "U",
        "meta_norad_cat_id": 36073,
        "meta_element_set_no": 999,
        "meta_rev_at_epoch": 70171,
        "meta_bstar": 0.00037536,
        "meta_mean_motion_dot": 1.045e-05,
        "meta_mean_motion_ddot": 0,
        "tle_line1": "1 36073U 93036AYL 25344.21767374  .00001045  00000+0  37536-3 0  9991",
        "tle_line2": "2 36073  74.0319 327.1820 0023742  35.9086 324.3656 14.34947803701715"
      },
      "geometry": {
        "type": "Point",
        "coordinates": [
          152.3823253277148,
          -26.15771980681307
        ]
      }
    },
    {
      "type": "Feature",
      "properties": {
        "norad_id": 36074,
        "name": "COSMOS 2251 DEB",
        "group": "cosmos-2251-debris",
        "lat": -43.902473476207746,
        "lon": -33.77736734914904,
        "alt_km": 767.5693987072655,
        "timestamp": "2025-12-11T18:59:46.472671+00:00",
        "meta_object_name": "COSMOS 2251 DEB",
        "meta_object_id": "1993-036AYM",
        "meta_epoch": "2025-12-04T07:35:54.379968",
        "meta_mean_motion": 14.43651509,
        "meta_eccentricity": 0.0041318,
        "meta_inclination": 73.9929,
        "meta_ra_of_asc_node": 356.1864,
        "meta_arg_of_pericenter": 90.6412,
        "meta_mean_anomaly": 269.9479,
        "meta_ephemeris_type": 0,
        "meta_classification_type": "U",
        "meta_norad_cat_id": 36074,
        "meta_element_set_no": 999,
        "meta_rev_at_epoch": 85788,
        "meta_bstar": 0.0017767,
        "meta_mean_motion_dot": 6.071e-05,
        "meta_mean_motion_ddot": 0,
        "tle_line1": "1 36074U 93036AYM 25338.31660162  .00006071  00000+0  17767-2 0  9990",
        "tle_line2": "2 36074  73.9929 356.1864 0041318  90.6412 269.9479 14.43651509857883"
      },
      "geometry": {
        "type": "Point",
        "coordinates": [
          -33.77736734914904,
          -43.902473476207746
        ]
      }
    },
    {
      "type": "Feature",
      "properties": {
        "norad_id": 36366,
        "name": "COSMOS 2251 DEB",
        "group": "cosmos-2251-debris",
        "lat": -69.01321934057994,
        "lon": -133.341006773831,
        "alt_km": 725.8913622038672,
        "timestamp": "2025-12-11T18:59:46.472681+00:00",
        "meta_object_name": "COSMOS 2251 DEB",
        "meta_object_id": "1993-036AYT",
        "meta_epoch": "2025-12-09T13:44:37.159584",
        "meta_mean_motion": 14.33338219,
        "meta_eccentricity": 0.0090898,
        "meta_inclination": 74.0656,
        "meta_ra_of_asc_node": 278.8454,
        "meta_arg_of_pericenter": 307.7057,
        "meta_mean_anomaly": 51.5877,
        "meta_ephemeris_type": 0,
        "meta_classification_type": "U",
        "meta_norad_cat_id": 36366,
        "meta_element_set_no": 999,
        "meta_rev_at_epoch": 86243,
        "meta_bstar": 0.0032091,
        "meta_mean_motion_dot": 9.245e-05,
        "meta_mean_motion_ddot": 0,
        "tle_line1": "1 36366U 93036AYT 25343.57265231  .00009245  00000+0  32091-2 0  9999",
        "tle_line2": "2 36366  74.0656 278.8454 0090898 307.7057  51.5877 14.33338219862438"
      },
      "geometry": {
        "type": "Point",
        "coordinates": [
          -133.341006773831,
          -69.01321934057994
        ]
      }
    },
    {
      "type": "Feature",
      "properties": {
        "norad_id": 36367,
        "name": "COSMOS 2251 DEB",
        "group": "cosmos-2251-debris",
        "lat": 54.96553907986344,
        "lon": 29.033691831234368,
        "alt_km": 1127.5180518401976,
        "timestamp": "2025-12-11T18:59:46.472691+00:00",
        "meta_object_name": "COSMOS 2251 DEB",
        "meta_object_id": "1993-036AYU",
        "meta_epoch": "2025-12-11T01:04:58.660896",
        "meta_mean_motion": 13.86314595,
        "meta_eccentricity": 0.02625211,
        "meta_inclination": 74.1007,
        "meta_ra_of_asc_node": 234.2792,
        "meta_arg_of_pericenter": 307.5422,
        "meta_mean_anomaly": 50.2108,
        "meta_ephemeris_type": 0,
        "meta_classification_type": "U",
        "meta_norad_cat_id": 36367,
        "meta_element_set_no": 999,
        "meta_rev_at_epoch": 57506,
        "meta_bstar": 0.0022824489,
        "meta_mean_motion_dot": 3.437e-05,
        "meta_mean_motion_ddot": 0,
        "tle_line1": "1 36367U 93036AYU 25345.04512339  .00003437  00000+0  22824-2 0  9998",
        "tle_line2": "2 36367  74.1007 234.2792 0262521 307.5422  50.2108 13.86314595575060"
      },
      "geometry": {
        "type": "Point",
        "coordinates": [
          29.033691831234368,
          54.96553907986344
        ]
      }
    },
    {
      "type": "Feature",
      "properties": {
        "norad_id": 36369,
        "name": "COSMOS 2251 DEB",
        "group": "cosmos-2251-debris",
        "lat": -15.254520929410576,
        "lon": 68.10959188854585,
        "alt_km": 662.2417930328147,
        "timestamp": "2025-12-11T18:59:46.472702+00:00",
        "meta_object_name": "COSMOS 2251 DEB",
        "meta_object_id": "1993-036AYW",
        "meta_epoch": "2025-12-08T12:51:14.336640",
        "meta_mean_motion": 14.73446953,
        "meta_eccentricity": 0.00117103,
        "meta_inclination": 74.038,
        "meta_ra_of_asc_node": 78.9305,
        "meta_arg_of_pericenter": 158.6263,
        "meta_mean_anomaly": 201.5401,
        "meta_ephemeris_type": 0,
        "meta_classification_type": "U",
        "meta_norad_cat_id": 36369,
        "meta_element_set_no": 999,
        "meta_rev_at_epoch": 85860,
        "meta_bstar": 0.0020709111,
        "meta_mean_motion_dot": 0.0001345,
        "meta_mean_motion_ddot": 0,
        "tle_line1": "1 36369U 93036AYW 25342.53558260  .00013450  00000+0  20709-2 0  9990",
        "tle_line2": "2 36369  74.0380  78.9305 0011710 158.6263 201.5401 14.73446953858600"
      },
      "geometry": {
        "type": "Point",
        "coordinates": [
          68.10959188854585,
          -15.254520929410576
        ]
      }
    }
  ]
}